Query,Business Name,Street Address,Latitude,Longitude
"[""Hardee's""]",Hardee,"351 Myrtle Ave, Brooklyn, NY 11205, United States",40.693407,-73.972197
"[""Hardee's""]",Hardee On Utica,"209 Utica Ave, Brooklyn, NY 11213, United States",40.6716898,-73.9306544
"[""Hardee's""]",Hardee's,"1801 Pulaski Hwy, Bear, DE 19701, United States",39.6108482,-75.70620319999999
"[""Hardee's""]",New Hardee,"835 Dekalb Ave, Brooklyn, NY 11221, United States",40.6924941,-73.9430268
"[""Hardee's""]",Hardee,"126 Hull St, Brooklyn, NY 11233, United States",40.6793668,-73.9108828
"[""Hardee's""]",Hardee's,"881 E Pulaski Hwy, Elkton, MD 21921, United States",39.6023199,-75.80153969999999
"[""Hardee's""]",New Hardee,"854 Franklin Ave, Brooklyn, NY 11225, United States",40.6690495,-73.9587063
"[""Hardee's""]",Hardee's,"340 Dove Run Centre Dr, Middletown, DE 19709, United States",39.45245999999999,-75.689638
"[""Hardee's""]",Hardee's,"198 W Lincoln Ave, Myerstown, PA 17067, United States",40.37767669999999,-76.30947139999999
"[""Hardee's""]",Hardee's,"519 S Bay Rd, Dover, DE 19901, United States",39.1565978,-75.50860440000001
"[""Hardee's""]",Hardee,"771 Saratoga Ave, Brooklyn, NY 11212, United States",40.6619151,-73.9153639
"[""Hardee's""]",Hardee's,"50 Greentree Dr, Dover, DE 19904, United States",39.1595255,-75.5547295
"[""Hardee's""]",Hardee's,"100 Jimmy Dr, Smyrna, DE 19977, United States",39.2850559,-75.5949804
"[""Hardee's""]",Ricky's Hardee,"429 Mother Gaston Blvd, Brooklyn, NY 11212, United States",40.6685909,-73.90622739999999
"[""Hardee's""]",Hardee's,"698 N Dupont Blvd, Milford, DE 19963, United States",38.9181805,-75.4398947
"[""Hardee's""]",Hardee's,"7237 Milford Harrington Hwy, Harrington, DE 19952, United States",38.9236575,-75.56717920000001
"[""Hardee's""]",Hardee's,"820 E Main St, Dallastown, PA 17313, United States",39.8967588,-76.6242898
"[""Hardee's""]",Hardee's,"2203 Paxton St, Harrisburg, PA 17111, United States",40.2547435,-76.84845779999999
"[""Hardee's""]",Hardee's,"230 Nissley St, Middletown, PA 17057, United States",40.197771,-76.73521
"[""Hardee's""]",Hardee's,"501 Church Hill Rd, Centreville, MD 21617, United States",39.0486549,-76.062128
"[""Hardee's""]",Hardee's,"1201 Highland Ave, Selma, AL 36703, United States",32.4317454,-87.0218338
"[""Hardee's""]",Hardee's,"706 E Main St, Prattville, AL 36067, United States",32.45962770000001,-86.45633380000001
"[""Hardee's""]",Hardee's,"1183 W South Blvd, Montgomery, AL 36105, United States",32.3275908,-86.3402368
"[""Hardee's""]",Hardee's,"2525 Cobbs Ford Rd, Prattville, AL 36066, United States",32.46077,-86.393852
"[""Hardee's""]",Hardee's,"906 Ann St, Montgomery, AL 36107, United States",32.3698976,-86.2713886
"[""Hardee's""]",Hardee's,"79 Folmar Pkwy, Hope Hull, AL 36043, United States",32.2683919,-86.3562694
"[""Hardee's""]",Hardee's,"912 Fort Dale Rd, Greenville, AL 36037, United States",31.84731,-86.6394491
"[""Hardee's""]",Hardee's,"3691 AL-14, Millbrook, AL 36054, United States",32.5173212,-86.3761729
"[""Hardee's""]",Hardee's,"1115 Coliseum Blvd, Montgomery, AL 36110, United States",32.4059817,-86.2658094
"[""Hardee's""]",Hardee's,"5401 Atlanta Hwy, Montgomery, AL 36109, United States",32.3824123,-86.2133702
"[""Hardee's""]",Hardee's,"2715 Taylor Rd, Montgomery, AL 36117, United States",32.3403694,-86.1786353
"[""Hardee's""]",Hardee's,"35 AL-41 N, Camden, AL 36726, United States",31.9942523,-87.27751870000002
"[""Hardee's""]",Hardee's,"2997 E Race Ave, Searcy, AR 72143, United States",35.25009670000001,-91.7012823
"[""Hardee's""]",Hardee's Searcy 2,"2505 Queensway St, Searcy, AR 72143, United States",35.218895,-91.716088
"[""Hardee's""]",Hardee's,"21 US-64, Beebe, AR 72012, United States",35.0686038,-91.9206842
"[""Hardee's""]",Hardee's - Cabot,"2201 N 2nd St suite b, Cabot, AR 72023, United States",34.9892423,-91.997481
"[""Hardee's""]",Hardee's,"1815 N 1st St, Jacksonville, AR 72076, United States",34.8840299,-92.1082416
"[""Hardee's""]",Hardee's,"4901 John F Kennedy Blvd, North Little Rock, AR 72116, United States",34.8005968,-92.2554634
"[""Hardee's""]",Hardee's,"1055 Dave Ward Dr, Conway, AR 72034, United States",35.0665515,-92.4402362
"[""Hardee's""]",Carl's Jr.,"2343 E Bell Rd, Phoenix, AZ 85022, United States",33.6400368,-112.0313608
"[""Hardee's""]",Carl's Jr.,"2610 Jensen Ave, Sanger, CA 93657, United States",36.7071466,-119.5750597
"[""Hardee's""]",Carl's Jr.,"5625 E Kings Canyon Rd, Fresno, CA 93727, United States",36.736238,-119.698564
"[""Hardee's""]",Carl's Jr.,"810 N Reed Ave, Reedley, CA 93654, United States",36.6034625,-119.4573518
"[""Hardee's""]",Carl's Jr.,"1930 Clovis Ave, Clovis, CA 93612, United States",36.8092498,-119.7007143
"[""Hardee's""]",Carl's Jr.,"1125 Herndon Ave, Clovis, CA 93612, United States",36.8378129,-119.697127
"[""Hardee's""]",Carl's Jr.,"4080 River Point Pkwy, Sheridan, CO 80110, United States",39.6432819,-105.0079116
"[""Hardee's""]",Carl's Jr.,"2901 Colorado Blvd, Idaho Springs, CO 80452, United States",39.741434,-105.497836
"[""Hardee's""]",Hardee's,"604 5th St, Rapid City, SD 57701, United States",44.0792353,-103.224972
"[""Hardee's""]",Hardee's,"2250 Haines Ave, Rapid City, SD 57701, United States",44.10742930000001,-103.2210165
"[""Hardee's""]",Hardee's,"1204 E North St, Rapid City, SD 57701, United States",44.0880484,-103.1915795
"[""Hardee's""]",Carl's Jr.,"497 S Wadsworth Blvd, Lakewood, CO 80226, United States",39.7073969,-105.0820066
"[""Hardee's""]",Hardee's,"724 Allegheny St, Dauphin, PA 17018, United States",40.3687361,-76.93961139999999
"[""Hardee's""]",Hardee's,"2635 Annapolis Rd, Hanover, MD 21076, United States",39.1308514,-76.73978129999999
"[""Hardee's""]",Hardee's,"1699 Crain Hwy S, Glen Burnie, MD 21061, United States",39.1432926,-76.63113179999999
"[""Hardee's""]",Hardee's,"718 Nursery Rd, Linthicum Heights, MD 21090, United States",39.2247673,-76.6592333
"[""Hardee's""]",Hardee's,"4111 Mountain Rd, Pasadena, MD 21122, United States",39.1221473,-76.515379
"[""Hardee's""]",Hardee's,"20 Prosperity Ln, Stafford, VA 22556, United States",38.4708701,-77.4133295
"[""Hardee's""]",Hardee's,"1700 Princess Anne St, Fredericksburg, VA 22401, United States",38.3100193,-77.4653317
"[""Hardee's""]",Hardee's,"1157 Shopping Center Rd, Stevensville, MD 21666, United States",38.975327,-76.2982961
"[""Hardee's""]",Hardee's,"567 Warrenton Rd, Falmouth, VA 22406, United States",38.3447079,-77.4989542
"[""Hardee's""]",Hardee's,"5107 Jefferson Davis Hwy, Fredericksburg, VA 22408, United States",38.2561073,-77.49803109999999
"[""Hardee's""]",Hardee's,"8335 Ocean Gateway, Easton, MD 21601, United States",38.7779518,-76.0596055
"[""Hardee's""]",Hardee's,"9811 Courthouse Rd, Spotsylvania Courthouse, VA 22553, United States",38.2336668,-77.5582112
"[""Hardee's""]",Hardee's,"11825 Tidewater Trail, Fredericksburg, VA 22408, United States",38.2816665,-77.4531361
"[""Hardee's""]",Hardee's,"800 Woods Rd, Cambridge, MD 21613, United States",38.5578718,-76.06064669999999
"[""Hardee's""]",Hardee's,"20598 Dupont Blvd, Georgetown, DE 19947, United States",38.698858,-75.40154249999999
"[""Hardee's""]",Hardee's,"328 W Stein Hwy, Seaford, DE 19973, United States",38.646612,-75.6224553
"[""Hardee's""]",Hardee's,"28552 Dupont Blvd, Millsboro, DE 19966, United States",38.581488,-75.292254
"[""Hardee's""]",Hardee's,"30759 Sussex Hwy, Laurel, DE 19956, United States",38.5608159,-75.556288
"[""Hardee's""]",Hardee's,"9521 Ocean Hwy, Delmar, MD 21875, United States",38.4536007,-75.5579328
"[""Hardee's""]",Hardee's,"28199 US-27, Dundee, FL 33838, United States",28.0182595,-81.6317419
"[""Hardee's""]",Hardee's,"300 E Van Fleet Dr, Bartow, FL 33830, United States",27.9044811,-81.8414876
"[""Hardee's""]",Hardee's,"126 Magnolia Ave, Auburndale, FL 33823, United States",28.0590321,-81.78509199999999
"[""Hardee's""]",Hardee's,"342 Shinn Blvd, Lake Alfred, FL 33850, United States",28.0888699,-81.730614
"[""Hardee's""]",Hardee's,"515 E Canal St, Mulberry, FL 33860, United States",27.8944623,-81.96910299999999
"[""Hardee's""]",Hardee's,"39837 US Hwy 27, Davenport, FL 33837, United States",28.1778258,-81.6390547
"[""Hardee's""]",Hardee's,"2050 W Memorial Blvd, Lakeland, FL 33815, United States",28.0542493,-81.9897943
"[""Hardee's""]",Hardee's,"1713 James L Redman Pkwy, Plant City, FL 33563, United States",27.9975761,-82.1220476
"[""Hardee's""]",Hardee's,"11705 US-92, Seffner, FL 33584, United States",28.0014702,-82.30169939999999
"[""Hardee's""]",Hardee's,"10840 W Colonial Dr, Ocoee, FL 34761, United States",28.55118,-81.539727
"[""Hardee's""]",Hardee's,"3992 S Babcock St, Melbourne, FL 32901, United States",28.0514093,-80.62217059999999
"[""Hardee's""]",Hardee's,"402 S Tamiami Trail, Ruskin, FL 33570, United States",27.7156168,-82.4334446
"[""Hardee's""]",Hardee's,"36502 FL-54, Zephyrhills, FL 33541, United States",28.2296382,-82.2128748
"[""Hardee's""]",Hardees,"501-505 Golden Isles Pkwy, Hawkinsville, GA 31036, United States",32.2837731,-83.4721177
"[""Hardee's""]",Hardee's,"21 E Coffee St, Hazlehurst, GA 31539, United States",31.8705633,-82.594572
"[""Hardee's""]",Hardee's,"341 Broad St, Hawkinsville, GA 31036, United States",32.28182290000001,-83.4745232
"[""Hardee's""]",Hardee's,"653 S Main St, Baxley, GA 31513, United States",31.7693535,-82.35183289999999
"[""Hardee's""]",Hardee's,"501 S Main St, Swainsboro, GA 30401, United States",32.5860291,-82.32295719999999
"[""Hardee's""]",Hardee's,"1702 E 16th Ave, Cordele, GA 31015, United States",31.9602646,-83.75563369999999
"[""Hardee's""]",Hardee's,"1392 Bowens Mill Rd SW, Douglas, GA 31533, United States",31.4883621,-82.8523171
"[""Hardee's""]",Hardee's,"99 Sandy Run Rd, Bonaire, GA 31005, United States",32.5686408,-83.5933143
"[""Hardee's""]",Hardee's,"421 N Davis Dr, Warner Robins, GA 31093, United States",32.6287397,-83.6134064
"[""Hardee's""]",Hardee's,"922 S Pierce St, Alma, GA 31510, United States",31.5341648,-82.4632663
"[""Hardee's""]",Hardee's,"1014 Gray Hwy, Macon, GA 31211, United States",32.8540672,-83.6192995
"[""Hardee's""]",Hardees Grovetown,"4305 Wrightsboro Rd, Grovetown, GA 30813, United States",33.47492769999999,-82.12955079999999
"[""Hardee's""]",Hardee's,"1504 Sam Nunn Blvd, Perry, GA 31069, United States",32.4736194,-83.74487959999999
"[""Hardee's""]",Hardee's,"318 S Virginia Ave, Tifton, GA 31794, United States",31.4509207,-83.5285303
"[""Hardee's""]",Hardee's,"178 Southwell Blvd, Tifton, GA 31794, United States",31.4156937,-83.5031546
"[""Hardee's""]",Hardee's,"195 Walmart Cir, Sandersville, GA 31082, United States",32.9524554,-82.8094768
"[""Hardee's""]",Hardee's,"242 GA-49, Byron, GA 31008, United States",32.6573081,-83.747068
"[""Hardee's""]",Hardee's,"203 N Main St, Pearson, GA 31642, United States",31.29885879999999,-82.8528111
"[""Hardee's""]",Hardee's,"612 Northside Dr E, Statesboro, GA 30458, United States",32.4383803,-81.76312759999999
"[""Hardee's""]",Hardee's,"115 N Duval St, Claxton, GA 30417, United States",32.16496,-81.9034866
"[""Hardee's""]",Hardee's,"1205 W 19th St S, Newton, IA 50208, United States",41.6880033,-93.0787919
"[""Hardee's""]",Hardee's,"902 S Center St, Marshalltown, IA 50158, United States",42.0374963,-92.91233580000001
"[""Hardee's""]",Hardee's,"1019 West St, Grinnell, IA 50112, United States",41.7454384,-92.72774319999999
"[""Hardee's""]",Hardee's,"1449 E Euclid Ave, Des Moines, IA 50316, United States",41.6273024,-93.59917279999999
"[""Hardee's""]",Hardee's,"1510 SW Tradition Dr, Ankeny, IA 50023, United States",41.70020590000001,-93.6207628
"[""Hardee's""]",Hardee's,"8755 University Ave, Des Moines, IA 50325, United States",41.6008334,-93.73783829999999
"[""Hardee's""]",Hardee's,"118 US-30, Toledo, IA 52342, United States",41.9872735,-92.5808424
"[""Hardee's""]",Hardee's,"915 Army Post Rd, Des Moines, IA 50315, United States",41.5267744,-93.6266735
"[""Hardee's""]",Hardee's,"1400 Industrial Park Road, Ellsworth, IA 50075, United States",42.3115727,-93.5718805
"[""Hardee's""]",Hardee's,"1405 S Lincoln St, Knoxville, IA 50138, United States",41.3075649,-93.10895149999999
"[""Hardee's""]",Hardee's,"300 E Trail Ridge Ave, Indianola, IA 50125, United States",41.384443,-93.55790560000001
"[""Hardee's""]",Hardee's,"805 Franklin St, Waterloo, IA 50703, United States",42.499319,-92.3303396
"[""Hardee's""]",Hardee's,"1410 Flammang Dr, Waterloo, IA 50702, United States",42.4597169,-92.32825779999999
"[""Hardee's""]",Hardee's,"1118 S Clinton St, Albia, IA 52531, United States",41.0166296,-92.80861
"[""Hardee's""]",Hardee's,"1007 N John Wayne Dr, Winterset, IA 50273, United States",41.344187,-94.01276
"[""Hardee's""]",Hardee's,"3505 29th Ave SW, Cedar Rapids, IA 52404, United States",41.9488709,-91.7175381
"[""Hardee's""]",Hardee's,"8295 U.S. Highway 10 W, Missoula, MT 59808, United States",46.9473164,-114.1341617
"[""Hardee's""]",Hardee's,"1919 E Custer Ave, Helena, MT 59602, United States",46.61622560000001,-112.0068763
"[""Hardee's""]",Hardee's,"2404 Central Ave, Billings, MT 59102, United States",45.7693226,-108.5768186
"[""Hardee's""]",Hardee's,"8021 State Ave, Kansas City, KS 66112, United States",39.115978,-94.7665126
"[""Hardee's""]",Hardee's,"3444 S High St, Columbus, OH 43207, United States",39.8915711,-82.9962584
"[""Hardee's""]",Hardee's,"2295 IN-3, North Vernon, IN 47265, United States",39.019148,-85.64033839999999
"[""Hardee's""]",Hardee's,"679 Reagan Ave, Box Elder, SD 57719, United States",44.1203735,-103.0521033
"[""Hardee's""]",Hardee's,"104 9th Ave SE, Watford City, ND 58854, United States",47.7921921,-103.2822309
"[""Hardee's""]",Hardee's,"2000 S Broadway, Minot, ND 58701, United States",48.21015329999999,-101.2967977
"[""Hardee's""]",Hardee's,"10500 Metcalf Ave, Overland Park, KS 66212, United States",38.9380029,-94.66819029999999
"[""Hardee's""]",Hardee's,"1102 Peoria St, Washington, IL 61571, United States",40.7025275,-89.4219842
"[""Hardee's""]",Hardee's,"101 N Main St, East Peoria, IL 61611, United States",40.666855,-89.5801637
"[""Hardee's""]",Hardee's,"105 N 5th St, Pekin, IL 61554, United States",40.5698324,-89.6452169
"[""Hardee's""]",Hardee's,"3505 NE Adams St, Peoria, IL 61603, United States",40.7204995,-89.5573864
"[""Hardee's""]",Hardee's,"507 W Center St, Eureka, IL 61530, United States",40.72138169999999,-89.2785679
"[""Hardee's""]",Hardee's,"3431 N University St, Peoria, IL 61604, United States",40.7296845,-89.61306640000001
"[""Hardee's""]",Hardee's,"5515 S Adams St, Bartonville, IL 61607, United States",40.6543273,-89.64962229999999
"[""Hardee's""]",Hardee's,"8787 Knoxville Ave, Peoria, IL 61615, United States",40.7943574,-89.6067266
"[""Hardee's""]",Hardee's,"3909 W War Memorial Dr, Peoria, IL 61615, United States",40.7709521,-89.6536861
"[""Hardee's""]",Hardee's,"1523 E College Ave, Normal, IL 61761, United States",40.5098896,-88.95761420000001
"[""Hardee's""]",Hardee's,"108 N 4th St, Chillicothe, IL 61523, United States",40.9079418,-89.4919845
"[""Hardee's""]",Hardee's,"539 Woodlawn Rd, Lincoln, IL 62656, United States",40.15740840000001,-89.3746001
"[""Hardee's""]",Hardee's,"638 N Main St, Canton, IL 61520, United States",40.5636869,-90.0356559
"[""Hardee's""]",Hardee's,"307 S Grant St, Clinton, IL 61727, United States",40.1501575,-88.9644893
"[""Hardee's""]",Hardee's,"401 W Dearborn St, Havana, IL 62644, United States",40.2936916,-90.0655017
"[""Hardee's""]",Hardee's,"600 W Jefferson St, Springfield, IL 62702, United States",39.8028134,-89.6629433
"[""Hardee's""]",Hardee's,"1835 E Sangamon Ave, Springfield, IL 62702, United States",39.8314266,-89.6311154
"[""Hardee's""]",Hardee's,"1700 Wabash Ave, Springfield, IL 62704, United States",39.76386979999999,-89.6830801
"[""Hardee's""]",Hardee's,"2501 Adlai Stevenson Dr, Springfield, IL 62703, United States",39.7585651,-89.6189608
"[""Hardee's""]",Hardee's,"1080 W Eldorado St, Decatur, IL 62522, United States",39.84588710000001,-88.9724225
"[""Hardee's""]",Hardee's,"3808 S Western Ave, Marion, IN 46953, United States",40.5222597,-85.6741436
"[""Hardee's""]",Hardee's,"4950 Beaner Blvd, Gas City, IN 46933, United States",40.4809237,-85.55117469999999
"[""Hardee's""]",Hardee's,"1500 E Morgan St, Kokomo, IN 46901, United States",40.5060666,-86.1123724
"[""Hardee's""]",Hardee's,"227 E McGalliard Rd, Muncie, IN 47303, United States",40.2187194,-85.3843057
"[""Hardee's""]",Hardee's,"2820 Main St, Elwood, IN 46036, United States",40.2773133,-85.8236783
"[""Hardee's""]",Hardee's,"2209 N Jefferson St, Huntington, IN 46750, United States",40.89644699999999,-85.50791
"[""Hardee's""]",Hardee's,"301 N Broadway, Peru, IN 46970, United States",40.7587337,-86.0719975
"[""Hardee's""]",Hardee's,"211 N Main St, Bluffton, IN 46714, United States",40.7411841,-85.17094259999999
"[""Hardee's""]",Hardee's,"5627 S Scatterfield Rd, Anderson, IN 46013, United States",40.0571898,-85.6534248
"[""Hardee's""]",Hardee's,"1875 Campbell Crossing, Tipton, IN 46072, United States",40.2764196,-86.1301615
"[""Hardee's""]",Hardee's,"2101 N Rock Rd, Derby, KS 67037, United States",37.5688955,-97.245063
"[""Hardee's""]",Hardee's,"Kansas Turnpike - Milepost 65, El Dorado, KS 67042, United States",37.766255,-96.981398
"[""Hardee's""]",Hardee's,"2002 Center St, Marysville, KS 66508, United States",39.84244200000001,-96.6331716
"[""Hardee's""]",Hardee's,"2300 NW Topeka Blvd, Topeka, KS 66608, United States",39.0890001,-95.6641803
"[""Hardee's""]",Hardee's,"12424 L St, Omaha, NE 68137, United States",41.21305599999999,-96.107241
"[""Hardee's""]",Hardee's,"815 S Parker St, Olathe, KS 66061, United States",38.8715142,-94.8349686
"[""Hardee's""]",Hardee's,"1100 SW 3rd St, Lee's Summit, MO 64081, United States",38.9117392,-94.39648520000001
"[""Hardee's""]",Hardee's,"6323 Independence Ave, Kansas City, MO 64125, United States",39.1044448,-94.5078372
"[""Hardee's""]",Hardee's,"9407 S 145th St, Omaha, NE 68138, United States",41.16605089999999,-96.1395926
"[""Hardee's""]",Hardee's,"8170 NW Prairie View Rd, Kansas City, MO 64151, United States",39.2426392,-94.65933849999999
"[""Hardee's""]",Hardee's,"811 N 205th St, Elkhorn, NE 68022, United States",41.266054,-96.23627239999999
"[""Hardee's""]",Hardee's,"3200 S Expressway St, Council Bluffs, IA 51501, United States",41.2278442,-95.8522571
"[""Hardee's""]",Hardee's,"16800 E Gudgell Rd, Independence, MO 64055, United States",39.0726017,-94.379419
"[""Hardee's""]",Hardee's,"3350 Elk Ln, Fremont, NE 68025, United States",41.450799,-96.454358
"[""Hardee's""]",Hardee's,"401 S Broadway, Oak Grove, MO 64075, United States",39.0124848,-94.12827659999999
"[""Hardee's""]",Hardee's,"2260 N Glenstone Ave, Springfield, MO 65803, United States",37.2376942,-93.2607106
"[""Hardee's""]",Hardee's,"3312 E Chestnut Expy, Springfield, MO 65802, United States",37.2091565,-93.2277577
"[""Hardee's""]",Hardee's,"807 W Taylor St, Creston, IA 50801, United States",41.0494379,-94.3728965
"[""Hardee's""]",Hardee's,"2405 Dakota Ave, South Sioux City, NE 68776, United States",42.4667942,-96.41447409999999
"[""Hardee's""]",Hardee's,"103 S Keeneland Dr, Richmond, KY 40475, United States",37.775451,-84.319265
"[""Hardee's""]",Hardee's,"524 Eastern Bypass, Richmond, KY 40475, United States",37.7353568,-84.310064
"[""Hardee's""]",Hardee's,"1466 W Lexington Ave, Winchester, KY 40391, United States",38.0056666,-84.2086324
"[""Hardee's""]",Hardee's,"1125 Winchester Rd, Lexington, KY 40505, United States",38.0428262,-84.4621051
"[""Hardee's""]",Hardee's,"2990 Richmond Rd, Lexington, KY 40509, United States",38.0055637,-84.4513648
"[""Hardee's""]",Hardee's,"202 W New Cir Rd, Lexington, KY 40505, United States",38.0677528,-84.4735505
"[""Hardee's""]",Hardee's,"903 S Main St, Nicholasville, KY 40356, United States",37.8674831,-84.5786152
"[""Hardee's""]",Hardee's,"215 Indian Mound Dr, Mt Sterling, KY 40353, United States",38.0739668,-83.9520936
"[""Hardee's""]",Hardee's,"98 Richmond Rd, Irvine, KY 40336, United States",37.6964112,-83.9785314
"[""Hardee's""]",Hardee's,"220 S Main St, Stanton, KY 40380, United States",37.842228,-83.8576966
"[""Hardee's""]",Hardee's,"1411 Main St, Paris, KY 40361, United States",38.2054226,-84.257288
"[""Hardee's""]",Hardee's,"100 Shelby Jct Ln, Junction City, KY 40440, United States",37.5823567,-84.786119
"[""Hardee's""]",Hardee's,"1965 US-25, Mt Vernon, KY 40456, United States",37.3806007,-84.3309184
"[""Hardee's""]",Hardee's,"1118 Lowe-Grout Rd, Iowa, LA 70647, United States",30.2530705,-93.01310289999999
"[""Hardee's""]",Hardee's,"2621 Ellisville Blvd, Laurel, MS 39440, United States",31.6621405,-89.1617705
"[""Hardee's""]",Hardee's,"5796 Twin Oaks Court, Theodore, AL 36582, United States",30.556484,-88.173281
"[""Hardee's""]",Hardee's,"3530 US 49, Collins, MS 39428, United States",31.651602,-89.5697023
"[""Hardee's""]",Hardee's,"116 Ron Harrod Rd, Prescott, AR 71857, United States",33.8288295,-93.3948279
"[""Hardee's""]",Hardee's,"6712 MS-63 N, Moss Point, MS 39563, United States",30.4378828,-88.52601969999999
"[""Hardee's""]",Hardee's,"241 Eastside Dr, Newton, MS 39345, United States",32.3379669,-89.1401221
"[""Hardee's""]",Hardee's,"24 Cowart St, Lucedale, MS 39452, United States",30.9107195,-88.5975242
"[""Hardee's""]",Hardee's,"9400 Grand Bay Wilmer Rd, Grand Bay, AL 36541, United States",30.49478379999999,-88.3371899
"[""Hardee's""]",Hardee's,"837 Gulf Shores Pkwy, Gulf Shores, AL 36542, United States",30.256839,-87.68897009999999
"[""Hardee's""]",Hardee's,"903 Azalea Dr, Waynesboro, MS 39367, United States",31.67820949999999,-88.6423985
"[""Hardee's""]",Hardee's,"2500 Wilde Lake Blvd, Pensacola, FL 32526, United States",30.5199539,-87.3142656
"[""Hardee's""]",Hardee's,"1570 W Fairfield Dr, Pensacola, FL 32501, United States",30.445545,-87.2354757
"[""Hardee's""]",Hardee's,"701 N Washington St, Livingston, AL 35470, United States",32.594805,-88.18352209999999
"[""Hardee's""]",Hardee's,"1804 W Trindle Rd, Carlisle, PA 17013, United States",40.1996116,-77.1553795
"[""Hardee's""]",Hardee's,"646 Main St, McSherrystown, PA 17344, United States",39.807111,-77.01114950000002
"[""Hardee's""]",Hardee's,"534 E Main St, Owosso, MI 48867, United States",42.9972284,-84.163282
"[""Hardee's""]",Hardee's,"2611 W Mason St, Green Bay, WI 54303, United States",44.5233436,-88.1001356
"[""Hardee's""]",Hardee's,"6710 S Business Dr, Sheboygan, WI 53081, United States",43.6769434,-87.7579441
"[""Hardee's""]",Hardee's,"2205 Hall Ave, Marinette, WI 54143, United States",45.0992827,-87.6369394
"[""Hardee's""]",Hardee's,"1910 E Capitol Dr, Appleton, WI 54911, United States",44.2949542,-88.3756788
"[""Hardee's""]",Hardee's,"2690 Eaton Rd, Bellevue, WI 54311, United States",44.4647674,-87.9486086
"[""Hardee's""]",Hardee's,"1593 E Mason St, Green Bay, WI 54302, United States",44.4982929,-87.9909875
"[""Hardee's""]",Hardee's,"2450 E Layton Ave, St Francis, WI 53235, United States",42.9595601,-87.8788292
"[""Hardee's""]",Hardee's,"350 East U.S. Hwy #2, Manistique, MI 49854, United States",45.9517073,-86.24393719999999
"[""Hardee's""]",Hardee's,"409 Algoma Blvd, Oshkosh, WI 54901, United States",44.0200869,-88.5430574
"[""Hardee's""]",Hardee's,"1235 S Green Bay Rd, Racine, WI 53406, United States",42.7180601,-87.84590659999999
"[""Hardee's""]",Hardee's,"18720 Partello Rd, Marshall, MI 49068, United States",42.2799372,-84.9302392
"[""Hardee's""]",Hardee's,"315 N Stephenson Ave, Iron Mountain, MI 49801, United States",45.8259708,-88.06245969999999
"[""Hardee's""]",Hardee's,"1120 W Washington St, Marquette, MI 49855, United States",46.5464412,-87.4203261
"[""Hardee's""]",Hardee's,"4814 Annamark Dr, Madison, WI 53704, United States",43.132255,-89.3009431
"[""Hardee's""]",Hardee's,"734 S 11th St, Niles, MI 49120, United States",41.8199484,-86.2476971
"[""Hardee's""]",Hardee's,"N101 WI-83, Delafield, WI 53018, United States",43.0530295,-88.37409610000002
"[""Hardee's""]",Hardee's,"715 E Main St, Watertown, WI 53094, United States",43.1930774,-88.7172936
"[""Hardee's""]",Hardee's,"1533 E 162nd St, South Holland, IL 60473, United States",41.5997567,-87.57967819999999
"[""Hardee's""]",Hardee's,"204 Minnesota Ave W, Walker, MN 56484, United States",47.1021695,-94.5785456
"[""Hardee's""]",Hardee's,"119 Washington St, Brainerd, MN 56401, United States",46.3585143,-94.20714319999999
"[""Hardee's""]",Hardee's,"205 Paul Bunyan Dr NW, Bemidji, MN 56601, United States",47.4913339,-94.88157079999999
"[""Hardee's""]",Hardee's,"1450 13th Ave E, West Fargo, ND 58078, United States",46.8624672,-96.8766766
"[""Hardee's""]",Hardee's,"3402 28th Ave S, Moorhead, MN 56560, United States",46.8506182,-96.72180879999999
"[""Hardee's""]",Hardee's,"703 E Main St, Anoka, MN 55303, United States",45.1980932,-93.37786899999999
"[""Hardee's""]",Hardee's,"401 1/2 Fire Monument Rd, Hinckley, MN 55037, United States",46.0119409,-92.9301808
"[""Hardee's""]",Hardee's,"1400 13th St S, Virginia, MN 55792, United States",47.51245290000001,-92.5573498
"[""Hardee's""]",Hardee's,"326 Marshall Dr, St Robert, MO 65584, United States",37.81614750000001,-92.1409508
"[""Hardee's""]",Hardee's,"702 N Franklin St, Cuba, MO 65453, United States",38.0703155,-91.4054494
"[""Hardee's""]",Hardee's,"3601 Country Club Dr, Jefferson City, MO 65109, United States",38.5834486,-92.2526807
"[""Hardee's""]",Hardee's,"1300 S Jefferson Ave, Lebanon, MO 65536, United States",37.6687677,-92.64900349999999
"[""Hardee's""]",Hardee's,"301 E 4th St, Eldon, MO 65026, United States",38.3470953,-92.5789858
"[""Hardee's""]",Hardee's,"926 S Sam Houston Blvd, Houston, MO 65483, United States",37.3199697,-91.9580019
"[""Hardee's""]",Hardee's,"300 US-50, Union, MO 63084, United States",38.4420619,-91.00609399999999
"[""Hardee's""]",Hardee's,"103 Healthway Dr, Potosi, MO 63664, United States",37.9274809,-90.7732183
"[""Hardee's""]",Hardee's,"228 W 5th St, Washington, MO 63090, United States",38.5550366,-91.0107738
"[""Hardee's""]",Hardee's,"200 S Providence Rd, Columbia, MO 65203, United States",38.949375,-92.3338478
"[""Hardee's""]",Hardee's,"1944 Wentzville Pkwy, Wentzville, MO 63385, United States",38.814788,-90.87544360000001
"[""Hardee's""]",Hardee's,"10 Centre On The Lake, Lake St Louis, MO 63367, United States",38.8025402,-90.7712391
"[""Hardee's""]",Hardee's,"11938 Dorsett Rd, St. Louis, MO 63043, United States",38.71419179999999,-90.4359319
"[""Hardee's""]",Hardee's,"501 Mid Rivers Mall Dr, St Peters, MO 63376, United States",38.7879087,-90.626451
"[""Hardee's""]",Hardee's,"4321 Butler Hill Rd, St. Louis, MO 63128, United States",38.4861697,-90.3583527
"[""Hardee's""]",Hardee's,"2110 Hampton Ave, St. Louis, MO 63139, United States",38.6173035,-90.28680639999999
"[""Hardee's""]",Hardee's,"905 Porter Wagoner Blvd, West Plains, MO 65775, United States",36.7362919,-91.8668247
"[""Hardee's""]",Hardee's,"100 Plaza Square, Leadington, MO 63601, United States",37.83923,-90.48583029999999
"[""Hardee's""]",Hardee's,"2813 MS-15, Bay Springs, MS 39422, United States",31.9773792,-89.2888912
"[""Hardee's""]",Hardee's,"1001 W Beacon St, Philadelphia, MS 39350, United States",32.7708461,-89.1280183
"[""Hardee's""]",Hardee's,"2102 N Frontage Rd, Meridian, MS 39301, United States",32.3551236,-88.6894509
"[""Hardee's""]",Hardee's,"134 N Hills St, Meridian, MS 39305, United States",32.413392,-88.6778332
"[""Hardee's""]",Hardee's,"913 Chantilly St, Laurel, MS 39440, United States",31.6983437,-89.1139998
"[""Hardee's""]",Hardee's,"710 N 16th Ave, Laurel, MS 39440, United States",31.6983862,-89.14747990000001
"[""Hardee's""]",Hardee's,"1790 Simpson, US 49, Magee, MS 39111, United States",31.8750357,-89.75552569999999
"[""Hardee's""]",Hardee's,"302 S Archusa Ave, Quitman, MS 39355, United States",32.0362352,-88.7284493
"[""Hardee's""]",Hardee's,"311 N Church Ave, Louisville, MS 39339, United States",33.126836,-89.055859
"[""Hardee's""]",Hardee's,"2625 10th Ave S, Great Falls, MT 59405, United States",47.49453760000001,-111.2614999
"[""Hardee's""]",Hardee's,"320 Euclid Ave, Helena, MT 59601, United States",46.5987158,-112.0417046
"[""Hardee's""]",Hardee's,"608 N 27th St, Billings, MT 59101, United States",45.7872099,-108.5096309
"[""Hardee's""]",Hardee's,"548 Main St, Billings, MT 59105, United States",45.8093807,-108.4732871
"[""Hardee's""]",Hardee's,"10455 US-64, Apex, NC 27523, United States",35.73613539999999,-79.0007631
"[""Hardee's""]",Hardee's,"6116 Farrington Rd, Chapel Hill, NC 27517, United States",35.9108538,-78.9844561
"[""Hardee's""]",Hardee's,"28 East St, Pittsboro, NC 27312, United States",35.7198601,-79.1755429
"[""Hardee's""]",Hardee's,"4607 S Alston Ave, Durham, NC 27713, United States",35.9002472,-78.88847659999999
"[""Hardee's""]",Hardee's,"1800, Chapel Hill, NC 27514, United States",35.944615,-79.011567
"[""Hardee's""]",Hardee's,"2721 Chapel Hill Rd, Durham, NC 27707, United States",35.9752106,-78.9361814
"[""Hardee's""]",Hardee's,"2304 Gorman St, Raleigh, NC 27606, United States",35.7674593,-78.69461609999999
"[""Hardee's""]",Hardee's,"1560 Broad St, Fuquay-Varina, NC 27526, United States",35.6044927,-78.8035324
"[""Hardee's""]",Hardee's,"5601 Creedmoor Rd, Raleigh, NC 27612, United States",35.858177,-78.681013
"[""Hardee's""]",Hardee's,"5639 Hillsborough St, Raleigh, NC 27606, United States",35.7859631,-78.7226553
"[""Hardee's""]",Hardee's,"8000 Fayetteville Rd, Raleigh, NC 27603, United States",35.665447,-78.69999299999999
"[""Hardee's""]",Hardee's,"100 Vandora Springs Rd, Garner, NC 27529, United States",35.7125597,-78.62098639999999
"[""Hardee's""]",Hardee's,"3912 N Duke St, Durham, NC 27704, United States",36.0538085,-78.9037827
"[""Hardee's""]",Hardee's,"380 S Churton St, Hillsborough, NC 27278, United States",36.0582726,-79.10428979999999
"[""Hardee's""]",Hardee's,"3002 S Horner Blvd, Sanford, NC 27332, United States",35.4517892,-79.13634379999999
"[""Hardee's""]",Hardee's,"2255 Jefferson Davis Hwy, Sanford, NC 27330, United States",35.4377324,-79.21773990000001
"[""Hardee's""]",Hardee's,"12872 US-70 W, Clayton, NC 27520, United States",35.6662252,-78.4971004
"[""Hardee's""]",Hardee's,"253 N Raleigh St, Angier, NC 27501, United States",35.5108871,-78.7410503
"[""Hardee's""]",Hardee's,"5184 NC-87 N, Sanford, NC 27332, United States",35.3798377,-79.1088563
"[""Hardee's""]",Hardee's,"1217 Trollingwood Hawfields Rd, Mebane, NC 27302, United States",36.0677157,-79.3133975
"[""Hardee's""]",Hardee's,"2205 N Broadway, Minot, ND 58703, United States",48.26059,-101.297012
"[""Hardee's""]",Hardee's,"1301 E Capitol Ave, Bismarck, ND 58501, United States",46.8278182,-100.7722734
"[""Hardee's""]",Hardee's,"500 E Main St, Mandan, ND 58554, United States",46.8276804,-100.8830824
"[""Hardee's""]",Hardee's,"901 1st Ave S, Jamestown, ND 58401, United States",46.8996301,-98.70735909999999
"[""Hardee's""]",Hardee's,"515 Highway 2 E, Devils Lake, ND 58301, United States",48.10147,-98.8581936
"[""Hardee's""]",Hardee's,"1213 N 47th St, Grand Forks, ND 58201, United States",47.932182,-97.0969676
"[""Hardee's""]",Hardee's,"102 Holiday Frontage Rd, North Platte, NE 69101, United States",41.10850780000001,-100.7649394
"[""Hardee's""]",Hardee's,"2324 6th St, Brookings, SD 57006, United States",44.3107885,-96.7648839
"[""Hardee's""]",Hardee's,"1409 Madison Ave, Mankato, MN 56001, United States",44.1665802,-93.9721352
"[""Hardee's""]",Hardee's,"1203 10th Ave N, Humboldt, IA 50548, United States",42.7322622,-94.22629839999999
"[""Hardee's""]",Hardee's,"625 Lincoln Way E, Chambersburg, PA 17201, United States",39.933832,-77.64847200000001
"[""Hardee's""]",Hardee's,"536 S Sandusky Ave, Bucyrus, OH 44820, United States",40.8036938,-82.97526739999999
"[""Hardee's""]",Hardee's,"6023 Alum Creek Dr, Obetz, OH 43207, United States",39.8446708,-82.93755829999999
"[""Hardee's""]",Hardee's,"300 W Main St, Circleville, OH 43113, United States",39.6034686,-82.94884119999999
"[""Hardee's""]",Hardee's,"325 S 2nd St, Coshocton, OH 43812, United States",40.2707201,-81.86957
"[""Hardee's""]",Hardee's,"Pataskala, OH 43062, United States",39.9449242,-82.6788813
"[""Hardee's""]",Hardee's,"2242 S Limestone St, Springfield, OH 45505, United States",39.8953398,-83.81106989999999
"[""Hardee's""]",Hardee's,"6410 County Rd 165, Genoa, OH 43430, United States",41.489564,-83.36952199999999
"[""Hardee's""]",Hardee's,"13023 US-35 NW, Jeffersonville, OH 43128, United States",39.6207798,-83.612766
"[""Hardee's""]",Hardee's,"2695 Gilchrist Rd, Akron, OH 44305, United States",41.0644404,-81.4292938
"[""Hardee's""]",Hardee's,"8750 Wooster Pike, Seville, OH 44273, United States",41.03500349999999,-81.8649408
"[""Hardee's""]",Hardee's,"2217 S Edwin C Moses Blvd, Dayton, OH 45417, United States",39.733341,-84.208788
"[""Hardee's""]",Hardee's,"7508 Brandt Pike, Huber Heights, OH 45424, United States",39.8611299,-84.1038621
"[""Hardee's""]",Hardee's,"1395 S Arlington St, Akron, OH 44306, United States",41.03433460000001,-81.4909548
"[""Hardee's""]",Hardee's,"500 S Breiel Blvd, Middletown, OH 45044, United States",39.505243,-84.355628
"[""Hardee's""]",Hardee's,"36900 Vine St, Willoughby, OH 44094, United States",41.6420843,-81.42346030000002
"[""Hardee's""]",Hardee's,"2309 Pike St, Parkersburg, WV 26101, United States",39.2324685,-81.54135649999999
"[""Hardee's""]",Hardee's,"2698 US Highway 35 N, Richmond, IN 47374, United States",39.871014,-84.93326880000001
"[""Hardee's""]",Hardee's,"1201 North Ave, Millvale, PA 15209, United States",40.4930849,-79.9755867
"[""Hardee's""]",Hardee's,"1111 Highway 62 65 N, Harrison, AR 72601, United States",36.2596943,-93.1265516
"[""Hardee's""]",Hardee's,"19001 Business 13 #13, Branson West, MO 65737, United States",36.7078756,-93.373553
"[""Hardee's""]",Carl's Jr.,"1101 24th Ave NW, Norman, OK 73069, United States",35.2319941,-97.4800161
"[""Hardee's""]",Hardee's,"2010 S Elliott Ave, Aurora, MO 65605, United States",36.9506544,-93.71796610000001
"[""Hardee's""]",Carl's Jr,"1010 N Milt Phillips Ave, Seminole, OK 74868, United States",35.2338431,-96.6706621
"[""Hardee's""]",Carl's Jr.,"2333 N Harrison St, Shawnee, OK 74804, United States",35.3572223,-96.9116667
"[""Hardee's""]",Carl's Jr.,"503 W Washington St, Purcell, OK 73080, United States",35.0141856,-97.3664668
"[""Hardee's""]",Carl's Jr.,"200 S Mississippi Ave, Ada, OK 74820, United States",34.7730629,-96.6695749
"[""Hardee's""]",Hardee's,"1331 Red Wolf Blvd, Jonesboro, AR 72401, United States",35.8295569,-90.6691963
"[""Hardee's""]",Hardee's,"1675 S Main St, Laurinburg, NC 28352, United States",34.754032,-79.47802659999999
"[""Hardee's""]",Hardee's,"30 S Antrim Way, Greencastle, PA 17225, United States",39.7908026,-77.731872
"[""Hardee's""]",Hardee's,"1527 E Main St, Waynesboro, PA 17268, United States",39.7446364,-77.5534888
"[""Hardee's""]",Hardee's,"42 E Main St, Hancock, MD 21750, United States",39.6986206,-78.1750191
"[""Hardee's""]",Hardee's,"1910 S Lake Dr, Lexington, SC 29073, United States",33.9067514,-81.22359639999999
"[""Hardee's""]",Hardee's,"2499 Augusta Rd, West Columbia, SC 29169, United States",33.9814978,-81.10226
"[""Hardee's""]",Hardee's,"3014 Charleston Hwy, West Columbia, SC 29172, United States",33.9293507,-81.0774897
"[""Hardee's""]",Hardee's,"105 N Church St, Swansea, SC 29160, United States",33.7386102,-81.0995193
"[""Hardee's""]",Hardee's,"1105 W Main St, Lexington, SC 29072, United States",33.983644,-81.254879
"[""Hardee's""]",Hardee's,"3852 Rosewood Dr, Columbia, SC 29205, United States",33.9873788,-80.9867917
"[""Hardee's""]",Hardee's,"5801 Fairfield Rd, Columbia, SC 29203, United States",34.0637882,-81.0234929
"[""Hardee's""]",Hardee's,"120 Veterans Rd, Columbia, SC 29209, United States",33.9739882,-80.9573434
"[""Hardee's""]",Hardee's,"496 Piney Grove Rd, Columbia, SC 29210, United States",34.067829,-81.1394212
"[""Hardee's""]",Hardee's,"7942 Garners Ferry Rd, Columbia, SC 29209, United States",33.95373319999999,-80.9217501
"[""Hardee's""]",Hardee's,"1325 Dutch Fork Rd, Irmo, SC 29063, United States",34.1240567,-81.2360162
"[""Hardee's""]",Hardee's,"143 E Church St, Batesburg-Leesville, SC 29070, United States",33.91532979999999,-81.52671649999999
"[""Hardee's""]",Hardee's,"1425 Chapin Rd, Chapin, SC 29036, United States",34.1673528,-81.3583107
"[""Hardee's""]",Hardee's,"3694 St Matthews Rd, Orangeburg, SC 29118, United States",33.5551144,-80.8252287
"[""Hardee's""]",Hardee's,"401 Harry C Raysor Dr, St Matthews, SC 29135, United States",33.6639993,-80.77701619999999
"[""Hardee's""]",Hardee's,"1109 John C Calhoun Dr, Orangeburg, SC 29115, United States",33.4859793,-80.86301
"[""Hardee's""]",Hardee's,"890 Five Chop Rd, Orangeburg, SC 29115, United States",33.4855375,-80.8323638
"[""Hardee's""]",Hardee's,"100 Creech Rd, Blythewood, SC 29016, United States",34.2135435,-80.9809069
"[""Hardee's""]",Hardee's,"486 US Highway 601 South, Lugoff, SC 29078, United States",34.1947467,-80.6869404
"[""Hardee's""]",Hardee's,"305 W Sioux Ave, Pierre, SD 57501, United States",44.3683297,-100.3570472
"[""Hardee's""]",Hardee's,"1402 E College Dr, Marshall, MN 56258, United States",44.450014,-95.7651625
"[""Hardee's""]",Hardee's,"310 Madison St, Shelbyville, TN 37160, United States",35.4883814,-86.45650180000001
"[""Hardee's""]",Hardee's,"2983 S Church St, Murfreesboro, TN 37127, United States",35.7867676,-86.4001091
"[""Hardee's""]",Hardee's,"2382 Old Fort Pkwy, Murfreesboro, TN 37128, United States",35.846403,-86.44153630000001
"[""Hardee's""]",Hardee's,"1685 Middle Tennessee Blvd, Murfreesboro, TN 37130, United States",35.8352243,-86.3740565
"[""Hardee's""]",Hardee's,"1851 Memorial Blvd, Murfreesboro, TN 37129, United States",35.8724775,-86.3861376
"[""Hardee's""]",Hardee's,"912 NW Broad St, Murfreesboro, TN 37129, United States",35.8564411,-86.40316960000001
"[""Hardee's""]",Hardee's,"1907 N Jackson St, Tullahoma, TN 37388, United States",35.3842889,-86.2324381
"[""Hardee's""]",Hardee's,"335 W Lincoln St, Tullahoma, TN 37388, United States",35.35897569999999,-86.2148745
"[""Hardee's""]",Hardee's,"113 Bear Creek Pike, Columbia, TN 38401, United States",35.6359722,-87.0161548
"[""Hardee's""]",Hardee's,"4907 Main St, Spring Hill, TN 37174, United States",35.776948,-86.91581699999999
"[""Hardee's""]",Hardee's,"1116 Huntsville Hwy, Fayetteville, TN 37334, United States",35.1411048,-86.56782570000001
"[""Hardee's""]",Hardee's,"1609 Columbia Ave, Franklin, TN 37064, United States",35.9051014,-86.87476459999999
"[""Hardee's""]",Hardee's,"1315 Murfreesboro Rd, Franklin, TN 37064, United States",35.9152378,-86.826475
"[""Hardee's""]",Hardee's,"1117 Hampshire Pike, Columbia, TN 38401, United States",35.6171796,-87.0636619
"[""Hardee's""]",Hardee's,"913 Hillsboro Hwy, Manchester, TN 37355, United States",35.4745038,-86.078214
"[""Hardee's""]",Hardee's,"508 Waldron Rd, La Vergne, TN 37086, United States",35.9994816,-86.59707569999999
"[""Hardee's""]",Hardee's,"7102 Hwy 70 S, Bellevue, TN 37221, United States",36.074593,-86.92217099999999
"[""Hardee's""]",Hardee's,"255 S Lowry St, Smyrna, TN 37167, United States",35.97597220000001,-86.5124496
"[""Hardee's""]",Hardee's,"1600 Dinah Shore Blvd, Winchester, TN 37398, United States",35.1997666,-86.0947061
"[""Hardee's""]",Hardee's,"4099 Nolensville Pike, Nashville, TN 37211, United States",36.0799123,-86.7270731
"[""Hardee's""]",Hardee's,"7551 Richmond Hwy, Appomattox, VA 24522, United States",37.363505,-78.8504234
"[""Hardee's""]",Hardee's,"1521 S Main St, Farmville, VA 23901, United States",37.2828808,-78.3958506
"[""Hardee's""]",Hardee's,"2231 Langhorne Rd, Lynchburg, VA 24501, United States",37.4123574,-79.17347989999999
"[""Hardee's""]",Hardee's,"Route 29 South, Madison Heights, VA 24572, United States",37.4416228,-79.1204061
"[""Hardee's""]",Hardee's,"114 Ambriar Plaza, Amherst, VA 24521, United States",37.5634768,-79.06470039999999
"[""Hardee's""]",Hardee's,"3750 Candlers Mountain Rd, Lynchburg, VA 24502, United States",37.3585329,-79.1705363
"[""Hardee's""]",Hardee's,"20265 Timberlake Rd, Lynchburg, VA 24502, United States",37.3442617,-79.23523759999999
"[""Hardee's""]",Hardee's,"17051 Forest Rd, Forest, VA 24551, United States",37.3671855,-79.2580655
"[""Hardee's""]",Hardee's,"1150 5th St SW, Charlottesville, VA 22902, United States",38.0121648,-78.5018466
"[""Hardee's""]",Hardee's,"889 Village Hwy, Rustburg, VA 24588, United States",37.277121,-79.0995442
"[""Hardee's""]",Hardee's,"10151 Superior Way, Amelia Court House, VA 23002, United States",37.3577816,-77.9587583
"[""Hardee's""]",Hardee's,"200 E Virginia Ave, Crewe, VA 23930, United States",37.1737015,-78.1244347
"[""Hardee's""]",Hardee's,"1416 W Main St, Waynesboro, VA 22980, United States",38.0720139,-78.90021229999999
"[""Hardee's""]",Hardee's,"1022 Main St, Altavista, VA 24517, United States",37.1150943,-79.2815052
"[""Hardee's""]",Hardee's,"13736 Hull Street Rd, Midlothian, VA 23112, United States",37.4087052,-77.6560396
"[""Hardee's""]",Hardee's,"11121 Midlothian Turnpike, Richmond, VA 23235, United States",37.505628,-77.60226569999999
"[""Hardee's""]",Hardee's,"241 N Central Ave, Staunton, VA 24401, United States",38.1528531,-79.0736221
"[""Hardee's""]",Hardee's,"413 E Main St, Louisa, VA 23093, United States",38.0204413,-77.9931058
"[""Hardee's""]",Hardee's,"4801 Jefferson Davis Hwy, Richmond, VA 23234, United States",37.4605703,-77.4418757
"[""Hardee's""]",Hardee's,"921 Myers St, Richmond, VA 23230, United States",37.5631033,-77.4692481
"[""Hardee's""]",Hardee's,"6501 Caratoke Hwy #158, Grandy, NC 27939, United States",36.2401105,-75.8757159
"[""Hardee's""]",Hardee's,"2100 S Koeller St, Oshkosh, WI 54902, United States",43.9939262,-88.5783775
"[""Hardee's""]",Hardee's,"759 W Johnson St, Fond du Lac, WI 54935, United States",43.7848944,-88.47458069999999
"[""Hardee's""]",Hardee's,"902 S Green Bay Rd, Neenah, WI 54956, United States",44.1764304,-88.48451039999999
"[""Hardee's""]",Hardee's,"W9493 City Hwy Cs, Poynette, WI 53955, United States",43.3892006,-89.4704149
"[""Hardee's""]",Hardee's,"4409 WI-42 North, Sheboygan, WI 53083, United States",43.7915072,-87.7608078
"[""Hardee's""]",Hardee's,"640 W Fulton St, Waupaca, WI 54981, United States",44.3582381,-89.09677889999999
"[""Hardee's""]",Hardee's,"3132 Church St, Stevens Point, WI 54481, United States",44.5051257,-89.5677484
"[""Hardee's""]",Hardee's,"537 Gateway Ave, Mauston, WI 53948, United States",43.7973672,-90.0633428
"[""Hardee's""]",Hardee's,"13477 Quality Dr, Roscoe, IL 61073, United States",42.4559941,-88.99822730000001
"[""Hardee's""]",Hardee's,"208 S Kanawha St, Buckhannon, WV 26201, United States",38.9787589,-80.22443489999999
"[""Hardee's""]",Hardee's,"598 US Highway 33E, Weston, WV 26452, United States",39.0362884,-80.4494649
"[""Hardee's""]",Hardee's,"1401 W Webster Rd, Summersville, WV 26651, United States",38.2839232,-80.8446613
"[""Hardee's""]",Hardee's,"722 E Main St, Clarksburg, WV 26301, United States",39.2732612,-80.3227593
"[""Hardee's""]",Hardee's,"27 Randolph Ave, Elkins, WV 26241, United States",38.9220305,-79.8420178
"[""Hardee's""]",Hardee's,"2649 White Hall Blvd, Fairmont, WV 26554, United States",39.4282127,-80.1880359
"[""Hardee's""]",Hardee's,"2029 N Jefferson St, Lewisburg, WV 24901, United States",37.8134145,-80.4315201
"[""Hardee's""]",Hardee's,"Route 60 West, Rainelle, WV 25962, United States",37.9679157,-80.7721624
"[""Hardee's""]",Hardee's,"130 S Main St, Philippi, WV 26416, United States",39.1494056,-80.0364738
"[""Hardee's""]",Hardee's,"19 Ritter Dr, Beaver, WV 25813, United States",37.7495431,-81.136442
"[""Hardee's""]",Hardee's,"9 Alvon Rd, White Sulphur Springs, WV 24986, United States",37.8031054,-80.2855002
"[""Hardee's""]",Hardee's,"4400 Pennsylvania Ave, Big Chimney, WV 25302, United States",38.4065775,-81.5412679
"[""Hardee's""]",Hardee's,"1122 S Alleghany Ave, Covington, VA 24426, United States",37.7817856,-79.9863936
"[""Hardee's""]",Hardee's,"405 E Main St, Kingwood, WV 26537, United States",39.4701061,-79.67364549999999
"[""Hardee's""]",Hardee's,"612 MacCorkle Ave SW, South Charleston, WV 25303, United States",38.3671082,-81.6854766
"[""Hardee's""]",Hardee's,"785 M.L.K. Jr. Way, Harrisonburg, VA 22801, United States",38.4404201,-78.8574074
"[""Hardee's""]",Hardee's,"76 E Midland Trail, Lexington, VA 24450, United States",37.7753445,-79.4331766
"[""Hardee's""]",Hardee's,"124 E Roy Furman Hwy, Waynesburg, PA 15370, United States",39.8960672,-80.16121199999999
"[""Hardee's""]",Hardee's,"900 Pronghorn St, Casper, WY 82601, United States",42.84927200000001,-106.33613
"[""Hardee's""]",Hardee's,"150 SE Wyoming Blvd, Casper, WY 82609, United States",42.8498863,-106.271641
"[""Hardee's""]",Hardee's,"104 E Hart St, Buffalo, WY 82834, United States",44.3544616,-106.6942462
"[""Hardee's""]",Hardee's,"207 S Miller Ave, Gillette, WY 82716, United States",44.2926971,-105.4945953
